start=new Date('2023-01-15T00:00:00.000Z').valueOf();
sats=[{"DECAY_DATE":null,"MEAN_MOTION":"15.08833234","LAUNCH_DATE":"2022-02-21","MEAN_ELEMENT_THEORY":"SGP4","NORAD_CAT_ID":"51751","PERIAPSIS":"537.790","REV_AT_EPOCH":"5122","TLE_LINE2":"2 51751  53.2149  70.9588 0002857  26.0607 334.0529 15.08833234 51228","MEAN_ANOMALY":"334.0529","PERIOD":"95.438","EPHEMERIS_TYPE":"0","TIME_SYSTEM":"UTC","MEAN_MOTION_DDOT":"0.0000000000000","ECCENTRICITY":"0.00028570","TLE_LINE1":"1 51751U 22016AP  23014.85051700  .00001308  00000-0  10033-3 0  9998","CLASSIFICATION_TYPE":"U","INCLINATION":"53.2149","SITE":"AFETR","SEMIMAJOR_AXIS":"6917.901","RCS_SIZE":"LARGE","CENTER_NAME":"EARTH","COUNTRY_CODE":"US","OBJECT_TYPE":"PAYLOAD","GP_ID":"223028008","OBJECT_NAME":"STARLINK-3506","MEAN_MOTION_DOT":"0.00001308","RA_OF_ASC_NODE":"70.9588","BSTAR":"0.00010033000000","ARG_OF_PERICENTER":"26.0607","REF_FRAME":"TEME","APOAPSIS":"541.743","FILE":"3745237","OBJECT_ID":"2022-016AP","ELEMENT_SET_NO":"999","EPOCH":"2023-01-14T20:24:44.668800"},{"CLASSIFICATION_TYPE":"U","TLE_LINE1":"1 51752U 22016AQ  23014.57082985  .00006930  00000-0  45282-3 0  9997","EPHEMERIS_TYPE":"0","TIME_SYSTEM":"UTC","ECCENTRICITY":"0.00019450","MEAN_MOTION_DDOT":"0.0000000000000","SEMIMAJOR_AXIS":"6917.816","RCS_SIZE":"LARGE","INCLINATION":"53.2135","SITE":"AFETR","MEAN_MOTION":"15.08861029","DECAY_DATE":null,"LAUNCH_DATE":"2022-02-21","NORAD_CAT_ID":"51752","MEAN_ELEMENT_THEORY":"SGP4","PERIAPSIS":"538.336","REV_AT_EPOCH":"5118","PERIOD":"95.436","MEAN_ANOMALY":"288.7681","TLE_LINE2":"2 51752  53.2135  72.2135 0001945  71.3522 288.7681 15.08861029 51185","ARG_OF_PERICENTER":"71.3522","REF_FRAME":"TEME","APOAPSIS":"541.027","RA_OF_ASC_NODE":"72.2135","BSTAR":"0.00045282000000","EPOCH":"2023-01-14T13:41:59.699040","ELEMENT_SET_NO":"999","FILE":"3744957","OBJECT_ID":"2022-016AQ","COUNTRY_CODE":"US","OBJECT_TYPE":"PAYLOAD","GP_ID":"223021108","CENTER_NAME":"EARTH","OBJECT_NAME":"STARLINK-3511","MEAN_MOTION_DOT":"0.00006930"},{"MEAN_ANOMALY":"322.4034","TLE_LINE2":"2 51753  53.2145  73.9630 0002469  37.7131 322.4034 15.08839407 51070","PERIOD":"95.438","MEAN_MOTION":"15.08839407","DECAY_DATE":null,"PERIAPSIS":"538.039","REV_AT_EPOCH":"5107","MEAN_ELEMENT_THEORY":"SGP4","LAUNCH_DATE":"2022-02-21","NORAD_CAT_ID":"51753","INCLINATION":"53.2145","SITE":"AFETR","SEMIMAJOR_AXIS":"6917.882","RCS_SIZE":"LARGE","TIME_SYSTEM":"UTC","EPHEMERIS_TYPE":"0","MEAN_MOTION_DDOT":"0.0000000000000","ECCENTRICITY":"0.00024690","TLE_LINE1":"1 51753U 22016AR  23014.18076617  .00003798  00000-0  25659-3 0  9995","CLASSIFICATION_TYPE":"U","OBJECT_NAME":"STARLINK-3507","MEAN_MOTION_DOT":"0.00003798","CENTER_NAME":"EARTH","COUNTRY_CODE":"US","OBJECT_TYPE":"PAYLOAD","GP_ID":"222992058","OBJECT_ID":"2022-016AR","FILE":"3744393","EPOCH":"2023-01-14T04:20:18.197088","ELEMENT_SET_NO":"999","BSTAR":"0.00025659000000","RA_OF_ASC_NODE":"73.9630","REF_FRAME":"TEME","ARG_OF_PERICENTER":"37.7131","APOAPSIS":"541.455"},{"CENTER_NAME":"EARTH","OBJECT_TYPE":"PAYLOAD","COUNTRY_CODE":"US","GP_ID":"223027600","OBJECT_NAME":"STARLINK-3457","MEAN_MOTION_DOT":"0.00018574","RA_OF_ASC_NODE":"72.2406","BSTAR":"0.00118130000000","ARG_OF_PERICENTER":"46.6787","REF_FRAME":"TEME","APOAPSIS":"541.301","FILE":"3745237","OBJECT_ID":"2022-016AS","ELEMENT_SET_NO":"999","EPOCH":"2023-01-14T13:32:47.133024","MEAN_MOTION":"15.08861984","DECAY_DATE":null,"MEAN_ELEMENT_THEORY":"SGP4","LAUNCH_DATE":"2022-02-21","NORAD_CAT_ID":"51754","PERIAPSIS":"538.055","REV_AT_EPOCH":"5118","MEAN_ANOMALY":"313.4400","TLE_LINE2":"2 51754  53.2164  72.2406 0002346  46.6787 313.4400 15.08861984 51189","PERIOD":"95.436","EPHEMERIS_TYPE":"0","TIME_SYSTEM":"UTC","MEAN_MOTION_DDOT":"0.0000000000000","ECCENTRICITY":"0.00023460","TLE_LINE1":"1 51754U 22016AS  23014.56443441  .00018574  00000-0  11813-2 0  9995","CLASSIFICATION_TYPE":"U","INCLINATION":"53.2164","SITE":"AFETR","SEMIMAJOR_AXIS":"6917.813","RCS_SIZE":"LARGE"},{"BSTAR":"0.00088057000000","RA_OF_ASC_NODE":"72.2261","REF_FRAME":"TEME","ARG_OF_PERICENTER":"33.4957","APOAPSIS":"541.635","OBJECT_ID":"2022-016AT","FILE":"3745237","ELEMENT_SET_NO":"999","EPOCH":"2023-01-14T13:36:42.810624","CENTER_NAME":"EARTH","OBJECT_TYPE":"PAYLOAD","COUNTRY_CODE":"US","GP_ID":"223027610","OBJECT_NAME":"STARLINK-3460","MEAN_MOTION_DOT":"0.00013759","TIME_SYSTEM":"UTC","EPHEMERIS_TYPE":"0","ECCENTRICITY":"0.00027810","MEAN_MOTION_DDOT":"0.0000000000000","TLE_LINE1":"1 51755U 22016AT  23014.56716216  .00013759  00000-0  88057-3 0  9994","CLASSIFICATION_TYPE":"U","INCLINATION":"53.2164","SITE":"AFETR","SEMIMAJOR_AXIS":"6917.846","RCS_SIZE":"LARGE","MEAN_MOTION":"15.08851134","DECAY_DATE":null,"PERIAPSIS":"537.788","REV_AT_EPOCH":"5118","LAUNCH_DATE":"2022-02-21","MEAN_ELEMENT_THEORY":"SGP4","NORAD_CAT_ID":"51755","TLE_LINE2":"2 51755  53.2164  72.2261 0002781  33.4957 326.6211 15.08851134 51187","MEAN_ANOMALY":"326.6211","PERIOD":"95.437"},{"INCLINATION":"53.2163","SITE":"AFETR","SEMIMAJOR_AXIS":"6917.915","RCS_SIZE":"LARGE","EPHEMERIS_TYPE":"0","TIME_SYSTEM":"UTC","MEAN_MOTION_DDOT":"0.0000000000000","ECCENTRICITY":"0.00027160","TLE_LINE1":"1 51756U 22016AU  23014.14027532 -.00001513  00000-0 -76947-4 0  9998","CLASSIFICATION_TYPE":"U","TLE_LINE2":"2 51756  53.2163  74.1497 0002716  20.9650 339.1453 15.08828646 51086","MEAN_ANOMALY":"339.1453","PERIOD":"95.438","MEAN_MOTION":"15.08828646","DECAY_DATE":null,"LAUNCH_DATE":"2022-02-21","NORAD_CAT_ID":"51756","MEAN_ELEMENT_THEORY":"SGP4","REV_AT_EPOCH":"5108","PERIAPSIS":"537.901","FILE":"3744393","OBJECT_ID":"2022-016AU","ELEMENT_SET_NO":"999","EPOCH":"2023-01-14T03:21:59.787648","RA_OF_ASC_NODE":"74.1497","BSTAR":"-0.00007694700000","ARG_OF_PERICENTER":"20.9650","REF_FRAME":"TEME","APOAPSIS":"541.659","OBJECT_NAME":"STARLINK-3513","MEAN_MOTION_DOT":"-0.00001513","CENTER_NAME":"EARTH","OBJECT_TYPE":"PAYLOAD","COUNTRY_CODE":"US","GP_ID":"222991883"},{"GP_ID":"223001320","COUNTRY_CODE":"US","OBJECT_TYPE":"PAYLOAD","CENTER_NAME":"EARTH","MEAN_MOTION_DOT":"0.00006788","OBJECT_NAME":"STARLINK-3459","APOAPSIS":"541.263","ARG_OF_PERICENTER":"36.8280","REF_FRAME":"TEME","RA_OF_ASC_NODE":"72.3870","BSTAR":"0.00044405000000","EPOCH":"2023-01-14T12:49:00.848640","ELEMENT_SET_NO":"999","FILE":"3744841","OBJECT_ID":"2022-016AV","LAUNCH_DATE":"2022-02-21","NORAD_CAT_ID":"51757","MEAN_ELEMENT_THEORY":"SGP4","PERIAPSIS":"538.173","REV_AT_EPOCH":"5118","DECAY_DATE":null,"MEAN_MOTION":"15.08848963","PERIOD":"95.437","TLE_LINE2":"2 51757  53.2136  72.3870 0002233  36.8280 323.2865 15.08848963 51187","MEAN_ANOMALY":"323.2865","CLASSIFICATION_TYPE":"U","TLE_LINE1":"1 51757U 22016AV  23014.53403760  .00006788  00000-0  44405-3 0  9993","MEAN_MOTION_DDOT":"0.0000000000000","ECCENTRICITY":"0.00022330","EPHEMERIS_TYPE":"0","TIME_SYSTEM":"UTC","RCS_SIZE":"LARGE","SEMIMAJOR_AXIS":"6917.853","SITE":"AFETR","INCLINATION":"53.2136"},{"CENTER_NAME":"EARTH","GP_ID":"223027603","OBJECT_TYPE":"PAYLOAD","COUNTRY_CODE":"US","MEAN_MOTION_DOT":"0.00019099","OBJECT_NAME":"STARLINK-3458","RA_OF_ASC_NODE":"70.9057","BSTAR":"0.00121490000000","APOAPSIS":"541.260","ARG_OF_PERICENTER":"37.8995","REF_FRAME":"TEME","FILE":"3745237","OBJECT_ID":"2022-016AW","ELEMENT_SET_NO":"999","EPOCH":"2023-01-14T20:42:01.631232","MEAN_ELEMENT_THEORY":"SGP4","LAUNCH_DATE":"2022-02-21","NORAD_CAT_ID":"51758","PERIAPSIS":"538.240","REV_AT_EPOCH":"5126","MEAN_MOTION":"15.08838498","DECAY_DATE":null,"TLE_LINE2":"2 51758  53.2158  70.9057 0002183  37.8995 322.2150 15.08838498 51268","MEAN_ANOMALY":"322.2150","PERIOD":"95.438","MEAN_MOTION_DDOT":"0.0000000000000","ECCENTRICITY":"0.00021830","EPHEMERIS_TYPE":"0","TIME_SYSTEM":"UTC","CLASSIFICATION_TYPE":"U","TLE_LINE1":"1 51758U 22016AW  23014.86251888  .00019099  00000-0  12149-2 0  9990","SITE":"AFETR","INCLINATION":"53.2158","RCS_SIZE":"LARGE","SEMIMAJOR_AXIS":"6917.885"},{"DECAY_DATE":null,"MEAN_MOTION":"15.08850090","PERIAPSIS":"537.980","REV_AT_EPOCH":"5125","LAUNCH_DATE":"2022-02-21","MEAN_ELEMENT_THEORY":"SGP4","NORAD_CAT_ID":"51759","PERIOD":"95.437","TLE_LINE2":"2 51759  53.2132  70.9116 0002507  46.1440 313.9759 15.08850090 51258","MEAN_ANOMALY":"313.9759","TLE_LINE1":"1 51759U 22016AX  23014.86156458  .00014871  00000-0  95022-3 0  9993","CLASSIFICATION_TYPE":"U","TIME_SYSTEM":"UTC","EPHEMERIS_TYPE":"0","MEAN_MOTION_DDOT":"0.0000000000000","ECCENTRICITY":"0.00025070","SEMIMAJOR_AXIS":"6917.850","RCS_SIZE":"LARGE","INCLINATION":"53.2132","SITE":"AFETR","OBJECT_TYPE":"PAYLOAD","COUNTRY_CODE":"US","GP_ID":"223027604","CENTER_NAME":"EARTH","OBJECT_NAME":"STARLINK-3456","MEAN_MOTION_DOT":"0.00014871","REF_FRAME":"TEME","ARG_OF_PERICENTER":"46.1440","APOAPSIS":"541.449","BSTAR":"0.00095022000000","RA_OF_ASC_NODE":"70.9116","ELEMENT_SET_NO":"999","EPOCH":"2023-01-14T20:40:39.179712","OBJECT_ID":"2022-016AX","FILE":"3745237"},{"TIME_SYSTEM":"UTC","EPHEMERIS_TYPE":"0","MEAN_MOTION_DDOT":"0.0000000000000","ECCENTRICITY":"0.00025040","TLE_LINE1":"1 51768U 22017A   23014.56072271  .00004204  00000-0  28213-3 0  9998","CLASSIFICATION_TYPE":"U","INCLINATION":"53.2164","SITE":"AFWTR","SEMIMAJOR_AXIS":"6917.903","RCS_SIZE":"LARGE","DECAY_DATE":null,"MEAN_MOTION":"15.08832551","REV_AT_EPOCH":"5042","PERIAPSIS":"538.036","MEAN_ELEMENT_THEORY":"SGP4","LAUNCH_DATE":"2022-02-25","NORAD_CAT_ID":"51768","TLE_LINE2":"2 51768  53.2164 102.2541 0002504  34.7921 325.3235 15.08832551 50424","MEAN_ANOMALY":"325.3235","PERIOD":"95.438","BSTAR":"0.00028213000000","RA_OF_ASC_NODE":"102.2541","REF_FRAME":"TEME","ARG_OF_PERICENTER":"34.7921","APOAPSIS":"541.500","OBJECT_ID":"2022-017A","FILE":"3744863","EPOCH":"2023-01-14T13:27:26.442144","ELEMENT_SET_NO":"999","CENTER_NAME":"EARTH","OBJECT_TYPE":"PAYLOAD","COUNTRY_CODE":"US","GP_ID":"223001750","OBJECT_NAME":"STARLINK-3622","MEAN_MOTION_DOT":"0.00004204"}];
